STARLINK-2713           
1 48602U 21041BB  26068.66670139  .00017496  00000+0  60221-3 0  9998
2 48602  53.1595 113.9599 0000876  75.4197  44.6441 15.30159001  5756
HAWK-11C                
1 62381U 24247E   26068.51221537  .00009223  00000+0  33290-3 0  9992
2 62381  45.0045 114.8762 0005900 329.7040  30.3502 15.28848020 67743
